ONEWEB-0267             
1 48985U 21060U   24264.49016017  .00000161  00000+0  38643-3 0  9993
2 48985  87.9175 355.1768 0001891 111.9380 248.1952 13.16594290156070
ONEWEB-0268             
1 48986U 21060V   24264.53448563  .00000049  00000+0  94374-4 0  9993
2 48986  87.9175 355.1743 0001693 103.5971 256.5349 13.16592756156345
ONEWEB-0270             
1 48988U 21060X   24264.53291136  .00000082  00000+0  18067-3 0  9998
2 48988  87.9173 355.1816 0002244 112.1832 247.9537 13.16594524156158
ONEWEB-0271             
1 48989U 21060Y   24264.21625273  .00000080  00000+0  17467-3 0  9998
2 48989  87.9174 355.2221 0001933 112.0777 248.0559 13.16592608156115
ONEWEB-0272             
1 48990U 21060Z   24264.54240901  .00000071  00000+0  15114-3 0  9994
2 48990  87.9175 355.1873 0001873 109.3880 250.7454 13.16593672156102
ONEWEB-0273             
1 48991U 21060AA  24264.48856742  .00000207  00000+0  50902-3 0  9999
2 48991  87.9178 355.1838 0002077 104.0966 256.0396 13.16592941156079
ONEWEB-0274             
1 48992U 21060AB  24264.20991715  .00000009  00000+0 -90614-5 0  9997
2 48992  87.9185 355.2593 0001436 109.6875 250.4411 13.16591943156072
